ONEWEB-0549             
1 56051U 23043F   24125.32068853  .00000166  00000+0  37054-3 0  9992
2 56051  87.9321  38.0148 0001937  83.1606 276.9748 13.21825204 56908
ONEWEB-0550             
1 56052U 23043G   24126.21642162  .00000056  00000+0  10350-3 0  9991
2 56052  87.9316  37.8460 0001712  80.4930 279.6397 13.21824007 57022
ONEWEB-0551             
1 56053U 23043H   24125.80431583  .00000040  00000+0  73468-4 0  9992
2 56053  87.9054  53.1341 0001932  86.0234 274.1117 13.15549716 55622
ONEWEB-0552             
1 56054U 23043J   24125.83162679  .00000020  00000+0  17071-4 0  9999
2 56054  87.9316  37.9325 0001628  85.8600 274.2720 13.21824754 56977
ONEWEB-0553             
1 56055U 23043K   24125.76088681  .00000374  00000+0  94341-3 0  9998
2 56055  87.9145  22.7333 0002165  72.1116 288.0251 13.16592939 58118
ONEWEB-0554             
1 56056U 23043L   24126.20417565 -.00000011  00000+0 -61164-4 0  9994
2 56056  87.9147  22.6655 0001172  74.1138 286.0122 13.16596752 58156
ONEWEB-0555             
1 56057U 23043M   24126.16618215  .00000136  00000+0  32245-3 0  9998
2 56057  87.9145  22.6458 0002118  60.1099 300.0242 13.16596487 58153
ONEWEB-0557             
1 56058U 23043N   24125.72444735  .00000005  00000+0 -21213-4 0  9994
2 56058  87.9145  22.7590 0001981  46.8425 313.2872 13.16595815 58095
